SatCatId,ObjectName,LaunchYear,OrbitalPeriod,LaunchMass,StatusCode,Inclination,Status,UcsData,OrbitClassEstimated,LaunchSiteCountry,Owner,UseType,Purpose,LaunchVehicleClass,TLE1,TLE2,MeanMotion,Eccentricity,OrbitClass
47512,FLOCK 4S-38,2021,93.92,-1.0,-,97.39,Inactive,0,LEO,USA,USA,Unknown,Unknown,Falcon,1 47512U 21006DD  23205.96658060  .00033899  00000+0  10530-2 0  9992,2 47512  97.3928 265.0501 0003485 320.1519  39.9467 15.33279100138482,15.332791,0.0003485,LEO
47514,FLOCK 4S-28,2021,94.06,4.0,+,97.38,Active,1,LEO,USA,USA,Commercial,Earth Observation,Falcon,1 47514U 21006DE  23205.12779668  .00012113  00000+0  40677-3 0  9992,2 47514  97.3797 262.8968 0004417 323.1305  36.9632 15.30992860139329,15.3099286,0.0004417,LEO
47515,FLOCK 4S-5,2021,94.03,4.0,+,97.38,Active,1,LEO,USA,USA,Commercial,Earth Observation,Falcon,1 47515U 21006DF  23205.57370524  .00022137  00000+0  73188-3 0  9990,2 47515  97.3786 263.2749 0005081 314.2080  45.8743 15.31359862138432,15.31359862,0.0005081,LEO
47516,FLOCK 4S-16,2021,93.19,4.0,+,97.39,Active,1,LEO,USA,USA,Commercial,Earth Observation,Falcon,1 47516U 21006DG  23204.57888827  .00019865  00000+0  41977-3 0  9995,2 47516  97.3883 266.2977 0005756 315.0997  44.9786 15.45191313139418,15.45191313,0.0005756,LEO
47517,ASTROCAST-0105,2021,94.87,4.0,+,97.38,Active,1,LEO,USA,Switzerland,Commercial,Communications,Falcon,1 47517U 21006DH  23206.59893811  .00005870  00000+0  29316-3 0  9993,2 47517  97.3793 258.9799 0006192 348.3477  11.7613 15.17838092138248,15.17838092,0.0006192,LEO
47518,FLOCK 4S-6,2021,94.04,4.0,+,97.38,Active,1,LEO,USA,USA,Commercial,Earth Observation,Falcon,1 47518U 21006DJ  23206.10209787  .00012994  00000+0  43200-3 0  9997,2 47518  97.3814 263.9742 0004972 328.9377  31.1569 15.31296319139483,15.31296319,0.0004972,LEO
47519,ASTROCAST-0104,2021,94.78,4.0,+,97.4,Active,1,LEO,USA,Switzerland,Commercial,Communications,Falcon,1 47519U 21006DK  23206.14804989  .00006628  00000+0  31708-3 0  9994,2 47519  97.3954 260.4856 0006690 325.9656  34.1149 15.19291405138228,15.19291405,0.000669,LEO
47520,FLOCK 4S-29,2021,93.99,-1.0,+,97.38,Active,0,LEO,USA,USA,Unknown,Unknown,Falcon,1 47520U 21006DL  23206.10911607  .00033020  00000+0  10633-2 0  9997,2 47520  97.3809 264.0215 0004307 308.5217  51.5639 15.32129460138516,15.3212946,0.0004307,LEO
47521,FLOCK 4S-15,2021,93.29,4.0,+,97.39,Active,1,LEO,USA,USA,Commercial,Earth Observation,Falcon,1 47521U 21006DM  23205.92096523  .00027072  00000+0  60319-3 0  9995,2 47521  97.3866 266.1804 0004608 340.0675  20.0392 15.43565867139537,15.43565867,0.0004608,LEO
47522,FLOCK 4S-37,2021,94.05,4.0,+,97.39,Active,1,LEO,USA,USA,Commercial,Earth Observation,Falcon,1 47522U 21006DN  23206.11681072  .00014782  00000+0  49355-3 0  9998,2 47522  97.3900 265.0572 0003941 323.0656  37.0314 15.31133209139480,15.31133209,0.0003941,LEO
47523,FLOCK 4S-10,2021,94.05,4.0,+,97.38,Active,1,LEO,USA,USA,Commercial,Earth Observation,Falcon,1 47523U 21006DP  23206.16552200  .00015753  00000+0  52611-3 0  9992,2 47523  97.3846 264.2385 0004274 330.8169  29.2833 15.31108114138517,15.31108114,0.0004274,LEO
47525,LEMUR-2-JENNIFERSONG,2021,93.46,10.0,+,97.39,Active,1,LEO,USA,USA,Commercial,Earth Observation,Falcon,1 47525U 21006DR  23206.39831950  .00056380  00000+0  13724-2 0  9993,2 47525  97.3851 267.3584 0004203 282.6615  77.4161 15.40743347138738,15.40743347,0.0004203,LEO
47526,KEPLER-14 (STELLA),2021,94.67,9.0,+,97.38,Active,1,LEO,USA,Canada,Government,Technology Development,Falcon,1 47526U 21006DS  23206.38389986  .00009132  00000+0  41297-3 0  9990,2 47526  97.3816 260.3256 0006928 346.4266  13.6782 15.21126100139267,15.211261,0.0006928,LEO
47527,FLOCK 4S-7,2021,94.06,4.0,+,97.38,Active,1,LEO,USA,USA,Commercial,Earth Observation,Falcon,1 47527U 21006DT  23206.38635436  .00013479  00000+0  45201-3 0  9993,2 47527  97.3807 264.1879 0004020 323.5402  36.5564 15.31012856139513,15.31012856,0.000402,LEO
47528,FLOCK 4S-14,2021,94.06,4.0,+,97.39,Active,1,LEO,USA,USA,Commercial,Earth Observation,Falcon,1 47528U 21006DU  23206.39391406  .00012749  00000+0  42769-3 0  9996,2 47528  97.3906 265.3321 0004170 323.8188  36.2770 15.31014316139518,15.31014316,0.000417,LEO
47529,LEMUR-2-CHANTAL,2021,94.01,10.0,+,97.38,Active,1,LEO,USA,USA,Commercial,Earth Observation,Falcon,1 47529U 21006DV  23206.10591432  .00023637  00000+0  77204-3 0  9997,2 47529  97.3835 263.8506 0003373 311.6765  48.4187 15.31744450139446,15.3174445,0.0003373,LEO
47530,FLOCK 4S-36,2021,94.05,4.0,+,97.39,Active,1,LEO,USA,USA,Commercial,Earth Observation,Falcon,1 47530U 21006DW  23205.92921290  .00013084  00000+0  43698-3 0  9992,2 47530  97.3893 264.7633 0004049 324.4853  35.6118 15.31151367139445,15.31151367,0.0004049,LEO
47531,KEPLER-9 (ARTEMIS),2021,94.23,9.0,+,97.39,Active,1,LEO,USA,Canada,Commercial,Communications,Falcon,1 47531U 21006DX  23206.16216193  .00023368  00000+0  85169-3 0  9994,2 47531  97.3921 263.3959 0004412 334.9411  25.1614 15.28173683139350,15.28173683,0.0004412,LEO
47532,YAOGAN-31 D,2021,107.04,-1.0,+,63.41,Active,1,LEO,PRC,China,Military,Earth Observation,Long March,1 47532U 21007A   23206.56526648 -.00000056  00000+0  55926-4 0  9998,2 47532  63.4088 339.8422 0081215 355.2155   4.8086 13.45264760121947,13.4526476,0.0081215,LEO
47533,YAOGAN-31 E,2021,107.04,-1.0,+,63.41,Active,1,LEO,PRC,China,Military,Earth Observation,Long March,1 47533U 21007B   23206.56530536 -.00000047  00000+0  71416-4 0  9992,2 47533  63.4082 338.9068 0081566 355.3117   4.7136 13.45264716121942,13.45264716,0.0081566,LEO
47536,YAOGAN-31 F,2021,107.04,-1.0,+,63.41,Active,1,LEO,PRC,China,Military,Earth Observation,Long March,1 47536U 21007E   23206.56506586 -.00000052  00000+0  62995-4 0  9991,2 47536  63.4083 338.9199 0081263 355.3017   4.7237 13.45265273121923,13.45265273,0.0081263,LEO
47538,LEMUR-2-NOOBNOOB,2021,93.84,10.0,+,97.39,Active,1,LEO,USA,USA,Commercial,Earth Observation,Falcon,1 47538U 21006DY  23205.40437349  .00025689  00000+0  76810-3 0  9996,2 47538  97.3891 265.6606 0005039 302.9330  57.1428 15.34542622138490,15.34542622,0.0005039,LEO
47539,FLOCK 4S-24,2021,94.05,4.0,+,97.38,Active,1,LEO,USA,USA,Commercial,Earth Observation,Falcon,1 47539U 21006DZ  23206.39843218  .00012623  00000+0  42282-3 0  9992,2 47539  97.3833 264.8759 0005852 298.5354  61.5297 15.31056894138576,15.31056894,0.0005852,LEO
47540,FLOCK 4S-20,2021,94.05,4.0,+,97.39,Active,1,LEO,USA,USA,Commercial,Earth Observation,Falcon,1 47540U 21006EA  23206.39640326  .00012336  00000+0  41369-3 0  9995,2 47540  97.3898 265.5464 0005867 302.8750  57.1926 15.31026382137641,15.31026382,0.0005867,LEO
47541,HIBER-4,2021,94.3,3.0,+,97.38,Active,1,LEO,USA,Netherlands,Commercial,Technology Development,Falcon,1 47541U 21006EB  23206.38113420  .00018530  00000+0  70045-3 0  9990,2 47541  97.3788 262.8255 0006748 313.5230  46.5447 15.27005874138479,15.27005874,0.0006748,LEO
47542,FLOCK 4S-25,2021,94.04,4.0,+,97.38,Active,1,LEO,USA,USA,Commercial,Earth Observation,Falcon,1 47542U 21006EC  23206.12682037  .00014383  00000+0  47821-3 0  9996,2 47542  97.3812 264.3735 0006220 308.4165  51.6517 15.31264159137600,15.31264159,0.000622,LEO
47543,FLOCK 4S-1,2021,94.02,4.0,+,97.38,Active,1,LEO,USA,USA,Commercial,Earth Observation,Falcon,1 47543U 21006ED  23206.11820990  .00016399  00000+0  53883-3 0  9992,2 47543  97.3826 264.3990 0005991 295.4904  64.5717 15.31618705137604,15.31618705,0.0005991,LEO
47544,FLOCK 4S-30,2021,94.05,4.0,+,97.38,Active,1,LEO,USA,USA,Commercial,Earth Observation,Falcon,1 47544U 21006EE  23206.11346743  .00012319  00000+0  41195-3 0  9993,2 47544  97.3817 264.0868 0003743 323.8838  36.2150 15.31127028139478,15.31127028,0.0003743,LEO
47545,FLOCK 4S-23,2021,92.91,4.0,+,97.38,Active,1,LEO,USA,USA,Commercial,Earth Observation,Falcon,1 47545U 21006EF  23206.58004018  .00036906  00000+0  65879-3 0  9994,2 47545  97.3777 268.1729 0005176 311.8894  48.1915 15.49957916139776,15.49957916,0.0005176,LEO
47546,COSMOS 2549,2021,103.1,5000.0,+,67.15,Active,1,LEO,Russia,Russia/USSR,Military,Earth Observation,Soyuz,1 47546U 21008A   23206.57306199 -.00000044  00000+0  22240-4 0  9992,2 47546  67.1481  36.3543 0006219 267.6329  92.4044 13.96671099126128,13.96671099,0.0006219,LEO
47548,STARLINK-1782,2021,95.59,260.0,+,53.06,Active,1,LEO,USA,USA,Commercial,Communications,Falcon,1 47548U 21009A   23206.50035182 -.00001947  00000+0 -11190-3 0  9994,2 47548  53.0556 353.1011 0000643  69.0059 291.0998 15.06390952136514,15.06390952,6.43e-05,LEO
47549,STARLINK-1806,2021,95.59,260.0,+,53.06,Active,1,LEO,USA,USA,Commercial,Communications,Falcon,1 47549U 21009B   23206.49666413  .00003993  00000+0  28671-3 0  9993,2 47549  53.0559 353.1165 0001602  75.7439 284.3728 15.06410965136513,15.06410965,0.0001602,LEO
47550,STARLINK-1909,2021,95.59,260.0,+,53.05,Active,1,LEO,USA,USA,Commercial,Communications,Falcon,1 47550U 21009C   23206.37595113  .00007109  00000+0  49575-3 0  9999,2 47550  53.0540 343.6600 0001179 103.1510 256.9610 15.06390532136633,15.06390532,0.0001179,LEO
47551,STARLINK-1938,2021,95.59,260.0,+,53.06,Active,1,LEO,USA,USA,Commercial,Communications,Falcon,1 47551U 21009D   23206.43676833  .00002224  00000+0  16813-3 0  9998,2 47551  53.0552   3.3866 0001070 100.8092 259.3017 15.06399872136364,15.06399872,0.000107,LEO
47552,STARLINK-1940,2021,95.59,260.0,+,53.05,Active,1,LEO,USA,USA,Commercial,Communications,Falcon,1 47552U 21009E   23206.50772494  .00000941  00000+0  82048-4 0  9995,2 47552  53.0552 353.0646 0000680  99.9588 260.1478 15.06389542136511,15.06389542,6.8e-05,LEO
47554,STARLINK-1953,2021,95.59,260.0,+,53.05,Active,1,LEO,USA,USA,Commercial,Communications,Falcon,1 47554U 21009G   23206.57960393  .00001883  00000+0  14531-3 0  9998,2 47554  53.0552  12.7450 0001037  90.6931 269.4177 15.06391958136244,15.06391958,0.0001037,LEO
